{
  "type": "FeatureCollection",
  "features": [
    {
      "type": "Feature",
      "properties": {
        "norad_id": 2807,
        "name": "OPS 7218 (TRANSIT 16)",
        "group": "nnss",
        "lat": 86.5634242949934,
        "lon": -0.2408248689888731,
        "alt_km": 1052.1404938829874,
        "timestamp": "2025-12-03T20:47:58.492134+00:00",
        "meta_object_name": "OPS 7218 (TRANSIT 16)",
        "meta_object_id": "1967-048A",
        "meta_epoch": "2025-12-03T12:06:54.103104",
        "meta_mean_motion": 13.50719477,
        "meta_eccentricity": 0.0021476,
        "meta_inclination": 89.6735,
        "meta_ra_of_asc_node": 354.3226,
        "meta_arg_of_pericenter": 138.9624,
        "meta_mean_anomaly": 349.3026,
        "meta_ephemeris_type": 0,
        "meta_classification_type": "U",
        "meta_norad_cat_id": 2807,
        "meta_element_set_no": 999,
        "meta_rev_at_epoch": 88151,
        "meta_bstar": 0.00022718,
        "meta_mean_motion_dot": 1.57e-06,
        "meta_mean_motion_ddot": 0,
        "tle_line1": "1 02807U 67048A   25337.50479286  .00000157  00000+0  22718-3 0  9998",
        "tle_line2": "2 02807  89.6735 354.3226 0021476 138.9624 349.3026 13.50719477881519"
      },
      "geometry": {
        "type": "Point",
        "coordinates": [
          -0.2408248689888731,
          86.5634242949934
        ]
      }
    },
    {
      "type": "Feature",
      "properties": {
        "norad_id": 2965,
        "name": "OPS 4947 (TRANSIT 17)",
        "group": "nnss",
        "lat": 64.23284555335206,
        "lon": 26.665747440464184,
        "alt_km": 1085.9786827065564,
        "timestamp": "2025-12-03T20:47:58.492161+00:00",
        "meta_object_name": "OPS 4947 (TRANSIT 17)",
        "meta_object_id": "1967-092A",
        "meta_epoch": "2025-12-03T09:53:28.687776",
        "meta_mean_motion": 13.53450021,
        "meta_eccentricity": 0.0045778,
        "meta_inclination": 89.2506,
        "meta_ra_of_asc_node": 25.1466,
        "meta_arg_of_pericenter": 262.5485,
        "meta_mean_anomaly": 108.3355,
        "meta_ephemeris_type": 0,
        "meta_classification_type": "U",
        "meta_norad_cat_id": 2965,
        "meta_element_set_no": 999,
        "meta_rev_at_epoch": 86971,
        "meta_bstar": 0.00024869,
        "meta_mean_motion_dot": 1.79e-06,
        "meta_mean_motion_ddot": 0,
        "tle_line1": "1 02965U 67092A   25337.41213759  .00000179  00000+0  24869-3 0  9996",
        "tle_line2": "2 02965  89.2506  25.1466 0045778 262.5485 108.3355 13.53450021869711"
      },
      "geometry": {
        "type": "Point",
        "coordinates": [
          26.665747440464184,
          64.23284555335206
        ]
      }
    },
    {
      "type": "Feature",
      "properties": {
        "norad_id": 3133,
        "name": "OPS 7034 (TRANSIT 18)",
        "group": "nnss",
        "lat": -85.62605360919524,
        "lon": -86.03400532963558,
        "alt_km": 1063.636634158428,
        "timestamp": "2025-12-03T20:47:58.492175+00:00",
        "meta_object_name": "OPS 7034 (TRANSIT 18)",
        "meta_object_id": "1968-012A",
        "meta_epoch": "2025-12-03T09:21:57.300192",
        "meta_mean_motion": 13.51562445,
        "meta_eccentricity": 0.0072979,
        "meta_inclination": 90.0269,
        "meta_ra_of_asc_node": 273.6128,
        "meta_arg_of_pericenter": 196.3448,
        "meta_mean_anomaly": 280.6016,
        "meta_ephemeris_type": 0,
        "meta_classification_type": "U",
        "meta_norad_cat_id": 3133,
        "meta_element_set_no": 999,
        "meta_rev_at_epoch": 56792,
        "meta_bstar": 0.00017779,
        "meta_mean_motion_dot": 1.27e-06,
        "meta_mean_motion_ddot": 0,
        "tle_line1": "1 03133U 68012A   25337.39024653  .00000127  00000+0  17779-3 0  9992",
        "tle_line2": "2 03133  90.0269 273.6128 0072979 196.3448 280.6016 13.51562445567924"
      },
      "geometry": {
        "type": "Point",
        "coordinates": [
          -86.03400532963558,
          -85.62605360919524
        ]
      }
    },
    {
      "type": "Feature",
      "properties": {
        "norad_id": 4507,
        "name": "NNSS 19 (TRANSIT 19)",
        "group": "nnss",
        "lat": -71.26827959821149,
        "lon": 54.51101494364789,
        "alt_km": 1025.3220270273741,
        "timestamp": "2025-12-03T20:47:58.492188+00:00",
        "meta_object_name": "NNSS 19 (TRANSIT 19)",
        "meta_object_id": "1970-067A",
        "meta_epoch": "2025-12-03T10:39:33.759936",
        "meta_mean_motion": 13.51311161,
        "meta_eccentricity": 0.0171187,
        "meta_inclination": 90.0056,
        "meta_ra_of_asc_node": 234.5273,
        "meta_arg_of_pericenter": 320.5051,
        "meta_mean_anomaly": 38.3724,
        "meta_ephemeris_type": 0,
        "meta_classification_type": "U",
        "meta_norad_cat_id": 4507,
        "meta_element_set_no": 999,
        "meta_rev_at_epoch": 72096,
        "meta_bstar": 0.00028364,
        "meta_mean_motion_dot": 2.1e-06,
        "meta_mean_motion_ddot": 0,
        "tle_line1": "1 04507U 70067A   25337.44414074  .00000210  00000+0  28364-3 0  9992",
        "tle_line2": "2 04507  90.0056 234.5273 0171187 320.5051  38.3724 13.51311161720969"
      },
      "geometry": {
        "type": "Point",
        "coordinates": [
          54.51101494364789,
          -71.26827959821149
        ]
      }
    },
    {
      "type": "Feature",
      "properties": {
        "norad_id": 6909,
        "name": "NNSS 20 (TRANSIT 20)",
        "group": "nnss",
        "lat": 42.31195627348176,
        "lon": -104.68129785064387,
        "alt_km": 935.800344894802,
        "timestamp": "2025-12-03T20:47:58.492200+00:00",
        "meta_object_name": "NNSS 20 (TRANSIT 20)",
        "meta_object_id": "1973-081A",
        "meta_epoch": "2025-12-03T11:50:21.755040",
        "meta_mean_motion": 13.71427816,
        "meta_eccentricity": 0.0156481,
        "meta_inclination": 89.8557,
        "meta_ra_of_asc_node": 255.1929,
        "meta_arg_of_pericenter": 105.6968,
        "meta_mean_anomaly": 256.1519,
        "meta_ephemeris_type": 0,
        "meta_classification_type": "U",
        "meta_norad_cat_id": 6909,
        "meta_element_set_no": 999,
        "meta_rev_at_epoch": 80234,
        "meta_bstar": 0.00028959,
        "meta_mean_motion_dot": 2.96e-06,
        "meta_mean_motion_ddot": 0,
        "tle_line1": "1 06909U 73081A   25337.49330735  .00000296  00000+0  28959-3 0  9999",
        "tle_line2": "2 06909  89.8557 255.1929 0156481 105.6968 256.1519 13.71427816802347"
      },
      "geometry": {
        "type": "Point",
        "coordinates": [
          -104.68129785064387,
          42.31195627348176
        ]
      }
    },
    {
      "type": "Feature",
      "properties": {
        "norad_id": 10457,
        "name": "TRANSAT",
        "group": "nnss",
        "lat": -26.227477429883912,
        "lon": 78.7376724625608,
        "alt_km": 1090.4406871914225,
        "timestamp": "2025-12-03T20:47:58.492211+00:00",
        "meta_object_name": "TRANSAT",
        "meta_object_id": "1977-106A",
        "meta_epoch": "2025-12-03T08:47:40.611264",
        "meta_mean_motion": 13.48941256,
        "meta_eccentricity": 0.0024549,
        "meta_inclination": 89.6482,
        "meta_ra_of_asc_node": 78.9288,
        "meta_arg_of_pericenter": 217.1657,
        "meta_mean_anomaly": 208.8093,
        "meta_ephemeris_type": 0,
        "meta_classification_type": "U",
        "meta_norad_cat_id": 10457,
        "meta_element_set_no": 999,
        "meta_rev_at_epoch": 36617,
        "meta_bstar": 0.00014772,
        "meta_mean_motion_dot": 1.03e-06,
        "meta_mean_motion_ddot": 0,
        "tle_line1": "1 10457U 77106A   25337.36644226  .00000103  00000+0  14772-3 0  9998",
        "tle_line2": "2 10457  89.6482  78.9288 0024549 217.1657 208.8093 13.48941256366177"
      },
      "geometry": {
        "type": "Point",
        "coordinates": [
          78.7376724625608,
          -26.227477429883912
        ]
      }
    },
    {
      "type": "Feature",
      "properties": {
        "norad_id": 12458,
        "name": "NOVA 1",
        "group": "nnss",
        "lat": -26.331710683128065,
        "lon": 91.43735058127635,
        "alt_km": 1188.2784202104312,
        "timestamp": "2025-12-03T20:47:58.492222+00:00",
        "meta_object_name": "NOVA 1",
        "meta_object_id": "1981-044A",
        "meta_epoch": "2025-12-03T08:32:59.363232",
        "meta_mean_motion": 13.2327685,
        "meta_eccentricity": 0.0015599,
        "meta_inclination": 89.8522,
        "meta_ra_of_asc_node": 91.5178,
        "meta_arg_of_pericenter": 127.0923,
        "meta_mean_anomaly": 296.7011,
        "meta_ephemeris_type": 0,
        "meta_classification_type": "U",
        "meta_norad_cat_id": 12458,
        "meta_element_set_no": 999,
        "meta_rev_at_epoch": 15062,
        "meta_bstar": 0.00015558,
        "meta_mean_motion_dot": 7.5e-07,
        "meta_mean_motion_ddot": 0,
        "tle_line1": "1 12458U 81044A   25337.35624263  .00000075  00000+0  15558-3 0  9996",
        "tle_line2": "2 12458  89.8522  91.5178 0015599 127.0923 296.7011 13.23276850150627"
      },
      "geometry": {
        "type": "Point",
        "coordinates": [
          91.43735058127635,
          -26.331710683128065
        ]
      }
    }
  ]
}